OBJECT_NAME,OBJECT_ID,EPOCH,MEAN_MOTION,ECCENTRICITY,INCLINATION,RA_OF_ASC_NODE,ARG_OF_PERICENTER,MEAN_ANOMALY,EPHEMERIS_TYPE,CLASSIFICATION_TYPE,NORAD_CAT_ID,ELEMENT_SET_NO,REV_AT_EPOCH,BSTAR,MEAN_MOTION_DOT,MEAN_MOTION_DDOT
PROBA-3 CSC,2024-233A,2026-07-04T12:11:00.375936,1.22075384,.8000422,59.7314,96.0051,206.0776,67.5703,0,U,62256,999,703,0,-.317E-5,0
PROBA-3 OSC,2024-233C,2026-07-04T12:11:09.521376,1.22075363,.8000227,59.7187,96.0232,206.0626,67.6161,0,U,62258,999,702,0,-.317E-5,0
SXM-9,2024-234A,2026-07-06T18:31:09.766848,1.00271248,.0004851,0.0207,322.3248,356.1720,158.9000,0,U,62259,999,577,0,-.19E-5,0
SENTINEL-1C,2024-235A,2026-07-06T21:08:52.053792,14.59198206,.0001378,98.1824,194.9085,90.1941,269.9416,0,U,62261,999,8428,.26752E-4,.8E-6,0
STARLINK-32632,2024-231V,2026-07-06T17:00:18.495360,15.31718952,.000103,53.1589,26.5888,101.8336,258.2781,0,U,62262,999,8999,.59464E-3,.18143E-3,0
STARLINK-11496 [DTC],2024-237A,2026-07-06T01:13:13.360512,15.70922721,.0001764,43.0004,63.5086,278.7763,81.2905,0,U,62267,999,9166,.25412247E-2,.340524E-2,0
STARLINK-11501 [DTC],2024-237B,2026-07-06T00:27:21.363264,15.70846633,.0001678,43.0004,63.2514,278.0266,82.0411,0,U,62268,999,9161,.13534659E-2,.177017E-2,0
STARLINK-11491 [DTC],2024-237C,2026-07-06T20:09:56.611584,15.70887984,.0001731,42.9998,58.2235,243.7527,116.3163,0,U,62269,999,9179,.23071E-3,.29319E-3,0
STARLINK-11479 [DTC],2024-237D,2026-07-06T20:32:52.490112,15.71021466,.000238,42.9995,58.3519,292.9769,67.0847,0,U,62270,999,9179,.93822E-3,.12267E-2,0
STARLINK-11489 [DTC],2024-237E,2026-07-06T16:51:43.485696,15.70993815,.0002579,43.0007,59.8024,276.4843,83.5731,0,U,62271,999,9176,.12742E-2,.167477E-2,0
STARLINK-11494 [DTC],2024-237F,2026-07-05T18:59:20.549184,15.70794233,.00012432,42.9995,64.9965,277.6010,82.4717,0,U,62272,999,9157,.14682221E-2,.191989E-2,0
STARLINK-11333 [DTC],2024-237G,2026-07-06T01:20:51.997632,15.70882303,.00019663,42.9996,63.5502,284.6065,75.4584,0,U,62273,999,9166,.14811694E-2,.194466E-2,0
STARLINK-11504 [DTC],2024-237H,2026-07-06T00:57:55.954944,15.70885864,.00025364,43.0012,63.4187,257.8114,102.2469,0,U,62274,999,9161,.20271757E-2,.268778E-2,0
STARLINK-11495 [DTC],2024-237J,2026-07-06T01:43:48.448992,15.70879845,.00018639,43.0008,63.6773,287.0264,73.0399,0,U,62275,999,9161,.15753257E-2,.207152E-2,0
STARLINK-11498 [DTC],2024-237K,2026-07-06T00:34:59.488896,15.70914019,.0002333,43.0000,63.2911,270.7314,89.3286,0,U,62276,999,9166,.17282492E-2,.22822E-2,0
STARLINK-11484 [DTC],2024-237L,2026-07-06T00:50:17.008512,15.70885794,.00014951,42.9996,63.3759,267.5716,92.4980,0,U,62277,999,9166,.16395717E-2,.215901E-2,0
STARLINK-11487 [DTC],2024-237M,2026-07-05T23:56:57.492096,15.70857426,.00021074,43.0004,63.9729,271.9366,88.1261,0,U,62278,999,9165,.17239242E-2,.227073E-2,0
STARLINK-11499 [DTC],2024-237N,2026-07-06T20:03:47.642976,15.70879743,.0001622,43.0001,59.0810,262.0868,97.9816,0,U,62279,999,9171,.33101E-3,.42312E-3,0
STARLINK-33548,2024-237P,2026-07-05T21:12:15.905088,15.27528098,.00013733,42.9995,258.0091,273.5627,86.5068,0,U,62280,999,8939,.72240519E-3,.19639E-3,0
STARLINK-33544,2024-237Q,2026-07-06T15:45:28.539648,15.27574818,.0001281,42.9977,264.7373,257.9161,102.1547,0,U,62281,999,8938,.70485E-3,.19181E-3,0
STARLINK-33560,2024-237R,2026-07-06T05:54:36.715392,15.27576523,.00017449,42.9978,266.8101,291.2246,68.8419,0,U,62282,999,8923,.12324974E-2,.33806E-3,0
STARLINK-33547,2024-237S,2026-07-05T13:15:54.656352,15.27553572,.0001394,42.9987,259.8231,267.9679,92.1013,0,U,62283,999,8934,-.27278E-3,-.7754E-4,0
STARLINK-33563,2024-237T,2026-07-05T22:13:05.142144,15.27529253,.00015918,43.0026,268.7059,270.6320,89.4350,0,U,62284,999,8927,.11324222E-2,.30983E-3,0
STARLINK-33550,2024-237U,2026-07-06T05:49:02.870112,15.27610732,.00013302,42.9990,266.7810,283.0828,76.9875,0,U,62285,999,8932,.16030649E-2,.44157E-3,0
STARLINK-33564,2024-237V,2026-07-05T22:18:38.392992,15.27528551,.00007528,42.9994,268.7385,301.9342,58.1437,0,U,62286,999,8927,.11397128E-2,.31184E-3,0
STARLINK-33546,2024-237W,2026-07-06T05:58:19.490016,15.27536858,.00017468,42.9992,266.8291,259.5856,100.4799,0,U,62287,999,8923,.91405465E-3,.24943E-3,0
STARLINK-33565,2024-237X,2026-07-06T05:49:06.435840,15.27586084,.00018522,43.0053,255.5396,263.5020,96.5621,0,U,62288,999,8945,.17427645E-2,.48017E-3,0
STARLINK-33549,2024-237Y,2026-07-06T06:14:57.190560,15.27566350,.00006994,43.0008,266.9218,216.8328,143.2475,0,U,62289,999,8932,.8576356E-3,.23403E-3,0
GJZ 01,2024-238A,2026-07-06T19:54:10.874592,13.75223628,.0012704,59.9117,227.2055,265.9070,94.0486,0,U,62290,999,7830,.71451E-4,-.5E-6,0
GJZ 02,2024-238B,2026-07-06T19:55:16.896288,13.75207589,.0006665,59.9154,191.3300,89.9355,270.2416,0,U,62291,999,7898,.382E-4,-.82E-6,0
