PROBA-3 CSC             
1 62256U 24233A   26185.50764324 -.00000317  00000+0  00000+0 0  9998
2 62256  59.7314  96.0051 8000422 206.0776  67.5703  1.22075384  7037
PROBA-3 OSC             
1 62258U 24233C   26185.50774909 -.00000317  00000+0  00000+0 0  9990
2 62258  59.7187  96.0232 8000227 206.0626  67.6161  1.22075363  7020
SXM-9                   
1 62259U 24234A   26187.77164082 -.00000190  00000+0  00000+0 0  9997
2 62259   0.0207 322.3248 0004851 356.1720 158.9000  1.00271248  5778
SENTINEL-1C             
1 62261U 24235A   26187.88115803  .00000080  00000+0  26752-4 0  9994
2 62261  98.1824 194.9085 0001378  90.1941 269.9416 14.59198206 84284
STARLINK-32632          
1 62262U 24231V   26187.70854740  .00018143  00000+0  59464-3 0  9996
2 62262  53.1589  26.5888 0001030 101.8336 258.2781 15.31718952 89994
STARLINK-11496 [DTC]    
1 62267U 24237A   26187.05084908  .00340524  00000+0  25412-2 0  9992
2 62267  43.0004  63.5086 0001764 278.7763  81.2905 15.70922721 91665
STARLINK-11501 [DTC]    
1 62268U 24237B   26187.01899726  .00177017  00000+0  13535-2 0  9999
2 62268  43.0004  63.2514 0001678 278.0266  82.0411 15.70846633 91617
STARLINK-11491 [DTC]    
1 62269U 24237C   26187.84023856  .00029319  00000+0  23071-3 0  9992
2 62269  42.9998  58.2235 0001731 243.7527 116.3163 15.70887984 91799
STARLINK-11479 [DTC]    
1 62270U 24237D   26187.85616308  .00122670  00000+0  93822-3 0  9990
2 62270  42.9995  58.3519 0002380 292.9769  67.0847 15.71021466 91796
STARLINK-11489 [DTC]    
1 62271U 24237E   26187.70258664  .00167477  00000+0  12742-2 0  9997
2 62271  43.0007  59.8024 0002579 276.4843  83.5731 15.70993815 91767
STARLINK-11494 [DTC]    
1 62272U 24237F   26186.79121006  .00191989  00000+0  14682-2 0  9995
2 62272  42.9995  64.9965 0001243 277.6010  82.4717 15.70794233 91573
STARLINK-11333 [DTC]    
1 62273U 24237G   26187.05615738  .00194466  00000+0  14812-2 0  9994
2 62273  42.9996  63.5502 0001966 284.6065  75.4584 15.70882303 91667
STARLINK-11504 [DTC]    
1 62274U 24237H   26187.04023096  .00268778  00000+0  20272-2 0  9999
2 62274  43.0012  63.4187 0002536 257.8114 102.2469 15.70885864 91619
STARLINK-11495 [DTC]    
1 62275U 24237J   26187.07208853  .00207152  00000+0  15753-2 0  9996
2 62275  43.0008  63.6773 0001863 287.0264  73.0399 15.70879845 91610
STARLINK-11498 [DTC]    
1 62276U 24237K   26187.02429964  .00228220  00000+0  17282-2 0  9998
2 62276  43.0000  63.2911 0002333 270.7314  89.3286 15.70914019 91664
STARLINK-11484 [DTC]    
1 62277U 24237L   26187.03491908  .00215901  00000+0  16396-2 0  9994
2 62277  42.9996  63.3759 0001495 267.5716  92.4980 15.70885794 91669
STARLINK-11487 [DTC]    
1 62278U 24237M   26186.99788764  .00227073  00000+0  17239-2 0  9998
2 62278  43.0004  63.9729 0002107 271.9366  88.1261 15.70857426 91650
STARLINK-11499 [DTC]    
1 62279U 24237N   26187.83596809  .00042312  00000+0  33101-3 0  9998
2 62279  43.0001  59.0810 0001622 262.0868  97.9816 15.70879743 91711
STARLINK-33548          
1 62280U 24237P   26186.88351742  .00019639  00000+0  72241-3 0  9993
2 62280  42.9995 258.0091 0001373 273.5627  86.5068 15.27528098 89398
STARLINK-33544          
1 62281U 24237Q   26187.65658032  .00019181  00000+0  70485-3 0  9992
2 62281  42.9977 264.7373 0001281 257.9161 102.1547 15.27574818 89380
STARLINK-33560          
1 62282U 24237R   26187.24625828  .00033806  00000+0  12325-2 0  9993
2 62282  42.9978 266.8101 0001744 291.2246  68.8419 15.27576523 89238
STARLINK-33547          
1 62283U 24237S   26186.55271593 -.00007754  00000+0 -27278-3 0  9992
2 62283  42.9987 259.8231 0001394 267.9679  92.1013 15.27553572 89347
STARLINK-33563          
1 62284U 24237T   26186.92575396  .00030983  00000+0  11324-2 0  9994
2 62284  43.0026 268.7059 0001591 270.6320  89.4350 15.27529253 89278
STARLINK-33550          
1 62285U 24237U   26187.24239433  .00044157  00000+0  16031-2 0  9998
2 62285  42.9990 266.7810 0001330 283.0828  76.9875 15.27610732 89324
STARLINK-33564          
1 62286U 24237V   26186.92961103  .00031184  00000+0  11397-2 0  9995
2 62286  42.9994 268.7385 0000752 301.9342  58.1437 15.27528551 89273
STARLINK-33546          
1 62287U 24237W   26187.24883669  .00024943  00000+0  91405-3 0  9996
2 62287  42.9992 266.8291 0001746 259.5856 100.4799 15.27536858 89236
STARLINK-33565          
1 62288U 24237X   26187.24243560  .00048017  00000+0  17428-2 0  9997
2 62288  43.0053 255.5396 0001852 263.5020  96.5621 15.27586084 89453
STARLINK-33549          
1 62289U 24237Y   26187.26038415  .00023403  00000+0  85764-3 0  9992
2 62289  43.0008 266.9218 0000699 216.8328 143.2475 15.27566350 89320
GJZ 01                  
1 62290U 24238A   26187.82929253 -.00000050  00000+0  71451-4 0  9999
2 62290  59.9117 227.2055 0012704 265.9070  94.0486 13.75223628 78307
GJZ 02                  
1 62291U 24238B   26187.83005667 -.00000082  00000+0  38200-4 0  9995
2 62291  59.9154 191.3300 0006665  89.9355 270.2416 13.75207589 78985
